{"type": "FeatureCollection", "features": [ {"type": "Feature", "properties": {"norad_id": 34833, "name": "IRIDIUM 33 DEB", "group": "iridium-33-debris", "lat": -4.171640746953631, "lon": 51.353660468846805, "alt_km": 725.9727157872449, "timestamp": "2025-12-11T07:02:24.115587+00:00", "meta": {"OBJECT_NAME": "IRIDIUM 33 DEB", "OBJECT_ID": "1997-051MH", "EPOCH": "2025-12-10T04:50:56.700096", "MEAN_MOTION": 14.52352974, "ECCENTRICITY": 0.0021797, "INCLINATION": 86.3927, "RA_OF_ASC_NODE": 52.0875, "ARG_OF_PERICENTER": 106.3594, "MEAN_ANOMALY": 307.6921, "EPHEMERIS_TYPE": 0, "CLASSIFICATION_TYPE": "U", "NORAD_CAT_ID": 34833, "ELEMENT_SET_NO": 999, "REV_AT_EPOCH": 87678, "BSTAR": 0.0011722, "MEAN_MOTION_DOT": 4.804e-05, "MEAN_MOTION_DDOT": 0}, "tle": {"line1": "1 34833U 97051MH  25344.20204514  .00004804  00000+0  11722-2 0  9999", "line2": "2 34833  86.3927  52.0875 0021797 106.3594 307.6921 14.52352974876785"}}, "geometry": {"type": "Point", "coordinates": [51.353660468846805, -4.171640746953631]}}, {"type": "Feature", "properties": {"norad_id": 34870, "name": "IRIDIUM 33 DEB", "group": "iridium-33-debris", "lat": -23.355386413212038, "lon": 136.34287305650304, "alt_km": 635.6050004577774, "timestamp": "2025-12-11T07:02:24.115598+00:00", "meta": {"OBJECT_NAME": "IRIDIUM 33 DEB", "OBJECT_ID": "1997-051MQ", "EPOCH": "2025-12-10T16:16:47.325792", "MEAN_MOTION": 14.76360658, "ECCENTRICITY": 0.00158788, "INCLINATION": 86.3108, "RA_OF_ASC_NODE": 315.0279, "ARG_OF_PERICENTER": 190.0668, "MEAN_ANOMALY": 346.5866, "EPHEMERIS_TYPE": 0, "CLASSIFICATION_TYPE": "U", "NORAD_CAT_ID": 34870, "ELEMENT_SET_NO": 999, "REV_AT_EPOCH": 88880, "BSTAR": 0.0023954817, "MEAN_MOTION_DOT": 0.00016709, "MEAN_MOTION_DDOT": 0}, "tle": {"line1": "1 34870U 97051MQ  25344.67832553  .00016709  00000+0  23955-2 0  9999", "line2": "2 34870  86.3108 315.0279 0015878 190.0668 346.5866 14.76360658888802"}}, "geometry": {"type": "Point", "coordinates": [136.34287305650304, -23.355386413212038]}}, {"type": "Feature", "properties": {"norad_id": 34896, "name": "IRIDIUM 33 DEB", "group": "iridium-33-debris", "lat": 82.2008446227166, "lon": 119.38537340798176, "alt_km": 674.9854226194602, "timestamp": "2025-12-11T07:02:24.115608+00:00", "meta": {"OBJECT_NAME": "IRIDIUM 33 DEB", "OBJECT_ID": "1997-051MY", "EPOCH": "2025-12-10T06:18:53.078976", "MEAN_MOTION": 14.66236202, "ECCENTRICITY": 0.0024107, "INCLINATION": 86.3294, "RA_OF_ASC_NODE": 327.796, "ARG_OF_PERICENTER": 223.7133, "MEAN_ANOMALY": 198.9285, "EPHEMERIS_TYPE": 0, "CLASSIFICATION_TYPE": "U", "NORAD_CAT_ID": 34896, "ELEMENT_SET_NO": 999, "REV_AT_EPOCH": 87583, "BSTAR": 0.0014714, "MEAN_MOTION_DOT": 8.162e-05, "MEAN_MOTION_DDOT": 0}, "tle": {"line1": "1 34896U 97051MY  25344.26311434  .00008162  00000+0  14714-2 0  9999", "line2": "2 34896  86.3294 327.7960 0024107 223.7133 198.9285 14.66236202875838"}}, "geometry": {"type": "Point", "coordinates": [119.38537340798176, 82.2008446227166]}}, {"type": "Feature", "properties": {"norad_id": 34926, "name": "IRIDIUM 33 DEB", "group": "iridium-33-debris", "lat": -64.60972219916665, "lon": -162.8613728303728, "alt_km": 686.3285827845766, "timestamp": "2025-12-11T07:02:24.115619+00:00", "meta": {"OBJECT_NAME": "IRIDIUM 33 DEB", "OBJECT_ID": "1997-051NF", "EPOCH": "2025-12-10T20:15:07.777728", "MEAN_MOTION": 14.54268157, "ECCENTRICITY": 0.00757354, "INCLINATION": 86.132, "RA_OF_ASC_NODE": 9.1517, "ARG_OF_PERICENTER": 299.2844, "MEAN_ANOMALY": 114.4517, "EPHEMERIS_TYPE": 0, "CLASSIFICATION_TYPE": "U", "NORAD_CAT_ID": 34926, "ELEMENT_SET_NO": 999, "REV_AT_EPOCH": 86429, "BSTAR": 0.0083671144, "MEAN_MOTION_DOT": 0.00037022, "MEAN_MOTION_DDOT": 0}, "tle": {"line1": "1 34926U 97051NF  25344.84384002  .00037022  00000+0  83671-2 0  9993", "line2": "2 34926  86.1320   9.1517 0075735 299.2844 114.4517 14.54268157864299"}}, "geometry": {"type": "Point", "coordinates": [-162.8613728303728, -64.60972219916665]}}, {"type": "Feature", "properties": {"norad_id": 34985, "name": "IRIDIUM 33 DEB", "group": "iridium-33-debris", "lat": 74.25339258795474, "lon": 70.50958501603314, "alt_km": 757.5782796156582, "timestamp": "2025-12-11T07:02:24.115629+00:00", "meta": {"OBJECT_NAME": "IRIDIUM 33 DEB", "OBJECT_ID": "1997-051NR", "EPOCH": "2025-12-10T04:10:55.898976", "MEAN_MOTION": 14.41991528, "ECCENTRICITY": 0.00204833, "INCLINATION": 86.3695, "RA_OF_ASC_NODE": 57.9739, "ARG_OF_PERICENTER": 228.6146, "MEAN_ANOMALY": 160.5649, "EPHEMERIS_TYPE": 0, "CLASSIFICATION_TYPE": "U", "NORAD_CAT_ID": 34985, "ELEMENT_SET_NO": 999, "REV_AT_EPOCH": 87138, "BSTAR": 0.00097130288, "MEAN_MOTION_DOT": 3.211e-05, "MEAN_MOTION_DDOT": 0}, "tle": {"line1": "1 34985U 97051NR  25344.17425809  .00003211  00000+0  97130-3 0  9994", "line2": "2 34985  86.3695  57.9739 0020483 228.6146 160.5649 14.41991528871386"}}, "geometry": {"type": "Point", "coordinates": [70.50958501603314, 74.25339258795474]}}, {"type": "Feature", "properties": {"norad_id": 35051, "name": "IRIDIUM 33 DEB", "group": "iridium-33-debris", "lat": -21.674776513985993, "lon": 8.028091757125832, "alt_km": 742.2666535073231, "timestamp": "2025-12-11T07:02:24.115639+00:00", "meta": {"OBJECT_NAME": "IRIDIUM 33 DEB", "OBJECT_ID": "1997-051NX", "EPOCH": "2025-12-10T01:16:41.683872", "MEAN_MOTION": 14.47578215, "ECCENTRICITY": 0.00106632, "INCLINATION": 86.3242, "RA_OF_ASC_NODE": 10.0324, "ARG_OF_PERICENTER": 98.47, "MEAN_ANOMALY": 261.7712, "EPHEMERIS_TYPE": 0, "CLASSIFICATION_TYPE": "U", "NORAD_CAT_ID": 35051, "ELEMENT_SET_NO": 999, "REV_AT_EPOCH": 86957, "BSTAR": 0.00086361177, "MEAN_MOTION_DOT": 3.199e-05, "MEAN_MOTION_DDOT": 0}, "tle": {"line1": "1 35051U 97051NX  25344.05326023  .00003199  00000+0  86361-3 0  9993", "line2": "2 35051  86.3242  10.0324 0010663  98.4700 261.7712 14.47578215869570"}}, "geometry": {"type": "Point", "coordinates": [8.028091757125832, -21.674776513985993]}}, {"type": "Feature", "properties": {"norad_id": 35052, "name": "IRIDIUM 33 DEB", "group": "iridium-33-debris", "lat": 4.719669853470423, "lon": -159.20692676306706, "alt_km": 765.2645493604005, "timestamp": "2025-12-11T07:02:24.115650+00:00", "meta": {"OBJECT_NAME": "IRIDIUM 33 DEB", "OBJECT_ID": "1997-051NY", "EPOCH": "2025-12-10T20:12:46.550016", "MEAN_MOTION": 14.38488803, "ECCENTRICITY": 0.00136918, "INCLINATION": 86.3312, "RA_OF_ASC_NODE": 21.2899, "ARG_OF_PERICENTER": 90.3566, "MEAN_ANOMALY": 269.9201, "EPHEMERIS_TYPE": 0, "CLASSIFICATION_TYPE": "U", "NORAD_CAT_ID": 35052, "ELEMENT_SET_NO": 999, "REV_AT_EPOCH": 87248, "BSTAR": 0.00026896696, "MEAN_MOTION_DOT": 8.42e-06, "MEAN_MOTION_DDOT": 0}, "tle": {"line1": "1 35052U 97051NY  25344.84220544  .00000842  00000+0  26897-3 0  9992", "line2": "2 35052  86.3312  21.2899 0013691  90.3566 269.9201 14.38488803872485"}}, "geometry": {"type": "Point", "coordinates": [-159.20692676306706, 4.719669853470423]}}, {"type": "Feature", "properties": {"norad_id": 35080, "name": "IRIDIUM 33 DEB", "group": "iridium-33-debris", "lat": 76.98978863178911, "lon": -143.62142035629765, "alt_km": 598.066558690206, "timestamp": "2025-12-11T07:02:24.115690+00:00", "meta": {"OBJECT_NAME": "IRIDIUM 33 DEB", "OBJECT_ID": "1997-051PF", "EPOCH": "2025-12-10T22:29:41.831808", "MEAN_MOTION": 14.85676849, "ECCENTRICITY": 0.00609943, "INCLINATION": 86.2065, "RA_OF_ASC_NODE": 53.2369, "ARG_OF_PERICENTER": 185.895, "MEAN_ANOMALY": 174.1564, "EPHEMERIS_TYPE": 0, "CLASSIFICATION_TYPE": "U", "NORAD_CAT_ID": 35080, "ELEMENT_SET_NO": 999, "REV_AT_EPOCH": 69661, "BSTAR": 0.010957999, "MEAN_MOTION_DOT": 0.00099464, "MEAN_MOTION_DDOT": 0}, "tle": {"line1": "1 35080U 97051PF  25344.93728972  .00099464  00000+0  10958-1 0  9998", "line2": "2 35080  86.2065  53.2369 0060994 185.8950 174.1564 14.85676849696611"}}, "geometry": {"type": "Point", "coordinates": [-143.62142035629765, 76.98978863178911]}}, {"type": "Feature", "properties": {"norad_id": 35297, "name": "IRIDIUM 33 DEB", "group": "iridium-33-debris", "lat": 46.95375603201999, "lon": 67.25714675010951, "alt_km": 738.8454812564696, "timestamp": "2025-12-11T07:02:24.115705+00:00", "meta": {"OBJECT_NAME": "IRIDIUM 33 DEB", "OBJECT_ID": "1997-051PM", "EPOCH": "2025-12-06T00:31:29.302752", "MEAN_MOTION": 14.45108459, "ECCENTRICITY": 0.00170329, "INCLINATION": 86.3867, "RA_OF_ASC_NODE": 65.6268, "ARG_OF_PERICENTER": 161.2449, "MEAN_ANOMALY": 198.9384, "EPHEMERIS_TYPE": 0, "CLASSIFICATION_TYPE": "U", "NORAD_CAT_ID": 35297, "ELEMENT_SET_NO": 999, "REV_AT_EPOCH": 70329, "BSTAR": 0.0012426888, "MEAN_MOTION_DOT": 4.371e-05, "MEAN_MOTION_DDOT": 0}, "tle": {"line1": "1 35297U 97051PM  25340.02186693  .00004371  00000+0  12427-2 0  9999", "line2": "2 35297  86.3867  65.6268 0017032 161.2449 198.9384 14.45108459703293"}}, "geometry": {"type": "Point", "coordinates": [67.25714675010951, 46.95375603201999]}}, {"type": "Feature", "properties": {"norad_id": 35299, "name": "IRIDIUM 33 DEB", "group": "iridium-33-debris", "lat": 1.6792987153739023, "lon": 33.92484925398294, "alt_km": 769.2895806779261, "timestamp": "2025-12-11T07:02:24.115715+00:00", "meta": {"OBJECT_NAME": "IRIDIUM 33 DEB", "OBJECT_ID": "1997-051PP", "EPOCH": "2025-12-10T21:51:11.079360", "MEAN_MOTION": 14.40845686, "ECCENTRICITY": 0.00589426, "INCLINATION": 86.2883, "RA_OF_ASC_NODE": 33.9824, "ARG_OF_PERICENTER": 108.2071, "MEAN_ANOMALY": 69.9595, "EPHEMERIS_TYPE": 0, "CLASSIFICATION_TYPE": "U", "NORAD_CAT_ID": 35299, "ELEMENT_SET_NO": 999, "REV_AT_EPOCH": 86304, "BSTAR": 0.0011417555, "MEAN_MOTION_DOT": 3.753e-05, "MEAN_MOTION_DDOT": 0}, "tle": {"line1": "1 35299U 97051PP  25344.91054490  .00003753  00000+0  11418-2 0  9994", "line2": "2 35299  86.2883  33.9824 0058942 108.2071  69.9595 14.40845686863041"}}, "geometry": {"type": "Point", "coordinates": [33.92484925398294, 1.6792987153739023]}}]}